OBJECT_NAME,OBJECT_ID,EPOCH,MEAN_MOTION,ECCENTRICITY,INCLINATION,RA_OF_ASC_NODE,ARG_OF_PERICENTER,MEAN_ANOMALY,EPHEMERIS_TYPE,CLASSIFICATION_TYPE,NORAD_CAT_ID,ELEMENT_SET_NO,REV_AT_EPOCH,BSTAR,MEAN_MOTION_DOT,MEAN_MOTION_DDOT
KUIPER-00532,2026-140N,2026-07-02T08:00:01.999872,15.36506070,.00051378,51.8796,325.6160,348.4116,302.1576,0,U,69604,999,349,.12756066E-2,.46058E-3,0
KUIPER-00533,2026-140P,2026-07-02T09:31:29.344224,15.38119466,.00070382,51.8840,325.1483,276.7939,83.2247,0,U,69605,999,357,.111382E-2,.42329E-3,0
KUIPER-00534,2026-140Q,2026-07-02T02:54:47.101536,15.38470182,.00140137,51.8845,326.3126,217.2174,142.7844,0,U,69606,999,353,.14664764E-2,.56745E-3,0
KUIPER-00537,2026-140R,2026-07-02T02:12:42.209280,15.35484432,.00092207,51.8815,326.8593,7.2207,352.8910,0,U,69607,999,352,-.19330874E-2,-.67566E-3,0
KUIPER-00538,2026-140S,2026-07-02T09:40:17.625792,15.37549968,.00059954,51.8845,325.1952,293.3848,66.6508,0,U,69608,999,357,.16119841E-2,.60439E-3,0
KUIPER-00540,2026-140T,2026-07-02T08:15:19.449504,15.36892413,.00059251,51.8817,325.5510,334.8464,25.2233,0,U,69609,999,356,.60311117E-3,.21776E-3,0
KUIPER-00541,2026-140U,2026-07-01T19:30:30.863808,15.38058087,.00069775,51.8826,327.9941,269.5479,90.4709,0,U,69610,999,348,.87846817E-3,.33193E-3,0
KUIPER-00542,2026-140V,2026-07-02T09:30:04.054464,15.38150322,.00060767,51.8819,325.1441,254.0794,105.9524,0,U,69611,999,357,.1024571E-2,.3892E-3,0
KUIPER-00543,2026-140W,2026-07-02T08:19:45.672960,15.36602967,.00071918,51.8787,325.5615,352.6233,7.4646,0,U,69612,999,356,.15391872E-2,.55924E-3,0
KUIPER-00544,2026-140X,2026-07-01T19:32:21.152544,15.37943283,.00056955,51.8800,327.9949,271.9057,88.1278,0,U,69613,999,348,.95708734E-3,.36069E-3,0
KUIPER-00546,2026-140Y,2026-07-02T02:57:08.996256,15.38614326,.00150157,51.8804,326.3207,214.8195,145.1811,0,U,69614,999,353,.12039605E-2,.46698E-3,0
KUIPER-00547,2026-140Z,2026-07-02T09:22:43.527648,15.37571838,.00099697,51.8796,325.1214,239.4884,120.5119,0,U,69615,999,357,.11797301E-2,.44107E-3,0
KUIPER-00549,2026-140AA,2026-07-01T19:43:25.423392,15.37113311,.00066596,51.8800,328.0447,324.4930,35.5613,0,U,69616,999,348,.12145376E-2,.44711E-3,0
KUIPER-00550,2026-140AB,2026-07-02T05:25:20.510976,15.34562546,.00072806,51.8795,326.2492,4.8190,355.2865,0,U,69617,999,354,-.59102632E-2,-.196378E-2,0
KUIPER-00551,2026-140AC,2026-07-02T09:15:57.362112,15.37973895,.00125139,51.8809,325.0818,229.0580,130.9325,0,U,69618,999,357,.13975508E-2,.53127E-3,0
KUIPER-00554,2026-140AD,2026-07-02T09:21:04.521024,15.37706055,.00124353,51.8848,325.1028,239.5496,120.4263,0,U,69619,999,357,.13143077E-2,.49478E-3,0
KUIPER-00555,2026-140AE,2026-07-02T03:03:44.351424,15.37861755,.00111426,51.8831,326.3544,228.9338,131.0687,0,U,69620,999,353,.13006955E-2,.49185E-3,0
KUIPER-00556,2026-140AF,2026-07-02T15:34:00.426720,15.38048524,.00120763,51.8820,323.8440,217.4884,142.5262,0,U,69621,999,361,.71158686E-3,.26822E-3,0
KUIPER-00557,2026-140AG,2026-07-02T14:00:01.999872,15.37243883,.00099877,51.8826,324.2001,247.7843,91.9894,0,U,69622,999,242,-.30631028E-3,-.11747E-3,0
KUIPER-00560,2026-140AH,2026-07-02T15:39:30.442752,15.38617911,.00078329,51.8776,323.8652,251.1620,108.8518,0,U,69623,999,361,.88586557E-3,.34109E-3,0
KUIPER-00561,2026-140AJ,2026-07-02T15:41:46.587552,15.38410816,.00069903,51.8790,323.8825,251.9871,108.0354,0,U,69624,999,361,.91025072E-3,.34817E-3,0
KUIPER-00564,2026-140AK,2026-07-02T15:37:25.181760,15.38757633,.00081701,51.8775,323.8614,241.1006,118.9162,0,U,69625,999,361,.10245552E-2,.39727E-3,0
KUIPER-00567,2026-140AL,2026-07-01T19:15:13.306176,15.38170815,.00128975,51.8783,327.9188,216.6865,143.3241,0,U,69626,999,348,.87848569E-3,.33381E-3,0
KUIPER-00573,2026-140AM,2026-07-02T15:43:26.117760,15.37341142,.00095983,51.8814,323.8831,230.9522,129.0612,0,U,69627,999,361,.12266063E-2,.45534E-3,0
