KUIPER-00532            
1 69604U 26140N   26183.33335648  .00046058  00000+0  12756-2 0  9998
2 69604  51.8796 325.6160 0005137 348.4116 302.1576 15.36506070  3492
KUIPER-00533            
1 69605U 26140P   26183.39686741  .00042329  00000+0  11138-2 0  9998
2 69605  51.8840 325.1483 0007038 276.7939  83.2247 15.38119466  3576
KUIPER-00534            
1 69606U 26140Q   26183.12137849  .00056745  00000+0  14665-2 0  9995
2 69606  51.8845 326.3126 0014013 217.2174 142.7844 15.38470182  3536
KUIPER-00537            
1 69607U 26140R   26183.09215520 -.00067566  00000+0 -19331-2 0  9995
2 69607  51.8815 326.8593 0009220   7.2207 352.8910 15.35484432  3522
KUIPER-00538            
1 69608U 26140S   26183.40298178  .00060439  00000+0  16120-2 0  9994
2 69608  51.8845 325.1952 0005995 293.3848  66.6508 15.37549968  3577
KUIPER-00540            
1 69609U 26140T   26183.34397511  .00021776  00000+0  60311-3 0  9992
2 69609  51.8817 325.5510 0005925 334.8464  25.2233 15.36892413  3569
KUIPER-00541            
1 69610U 26140U   26182.81285722  .00033193  00000+0  87847-3 0  9994
2 69610  51.8826 327.9941 0006977 269.5479  90.4709 15.38058087  3489
KUIPER-00542            
1 69611U 26140V   26183.39588026  .00038920  00000+0  10246-2 0  9993
2 69611  51.8819 325.1441 0006076 254.0794 105.9524 15.38150322  3578
KUIPER-00543            
1 69612U 26140W   26183.34705640  .00055924  00000+0  15392-2 0  9992
2 69612  51.8787 325.5615 0007191 352.6233   7.4646 15.36602967  3567
KUIPER-00544            
1 69613U 26140X   26182.81413371  .00036069  00000+0  95709-3 0  9991
2 69613  51.8800 327.9949 0005695 271.9057  88.1278 15.37943283  3482
KUIPER-00546            
1 69614U 26140Y   26183.12302079  .00046698  00000+0  12040-2 0  9994
2 69614  51.8804 326.3207 0015015 214.8195 145.1811 15.38614326  3530
KUIPER-00547            
1 69615U 26140Z   26183.39078157  .00044107  00000+0  11797-2 0  9992
2 69615  51.8796 325.1214 0009969 239.4884 120.5119 15.37571838  3576
KUIPER-00549            
1 69616U 26140AA  26182.82182203  .00044711  00000+0  12145-2 0  9997
2 69616  51.8800 328.0447 0006659 324.4930  35.5613 15.37113311  3485
KUIPER-00550            
1 69617U 26140AB  26183.22593184 -.00196378  00000+0 -59103-2 0  9991
2 69617  51.8795 326.2492 0007280   4.8190 355.2865 15.34562546  3540
KUIPER-00551            
1 69618U 26140AC  26183.38608058  .00053127  00000+0  13976-2 0  9996
2 69618  51.8809 325.0818 0012513 229.0580 130.9325 15.37973895  3573
KUIPER-00554            
1 69619U 26140AD  26183.38963566  .00049478  00000+0  13143-2 0  9995
2 69619  51.8848 325.1028 0012435 239.5496 120.4263 15.37706055  3573
KUIPER-00555            
1 69620U 26140AE  26183.12759666  .00049185  00000+0  13007-2 0  9997
2 69620  51.8831 326.3544 0011142 228.9338 131.0687 15.37861755  3537
KUIPER-00556            
1 69621U 26140AF  26183.64861605  .00026822  00000+0  71159-3 0  9998
2 69621  51.8820 323.8440 0012076 217.4884 142.5262 15.38048524  3616
KUIPER-00557            
1 69622U 26140AG  26183.58335648 -.00011747  00000+0 -30631-3 0  9997
2 69622  51.8826 324.2001 0009987 247.7843  91.9894 15.37243883  2429
KUIPER-00560            
1 69623U 26140AH  26183.65243568  .00034109  00000+0  88587-3 0  9993
2 69623  51.8776 323.8652 0007832 251.1620 108.8518 15.38617911  3611
KUIPER-00561            
1 69624U 26140AJ  26183.65401143  .00034817  00000+0  91025-3 0  9996
2 69624  51.8790 323.8825 0006990 251.9871 108.0354 15.38410816  3615
KUIPER-00564            
1 69625U 26140AK  26183.65098590  .00039727  00000+0  10246-2 0  9995
2 69625  51.8775 323.8614 0008170 241.1006 118.9162 15.38757633  3616
KUIPER-00567            
1 69626U 26140AL  26182.80223734  .00033381  00000+0  87849-3 0  9996
2 69626  51.8783 327.9188 0012897 216.6865 143.3241 15.38170815  3484
KUIPER-00573            
1 69627U 26140AM  26183.65516340  .00045534  00000+0  12266-2 0  9992
2 69627  51.8814 323.8831 0009598 230.9522 129.0612 15.37341142  3613
